{
    "links": {
        "self": "http://www.neowsapp.com/rest/v1/neo/3873198?api_key=iIulBulltgU6a56xZRHN4H3l9WmuAYTsLGpBGhQ2"
    },
    "id": "3873198",
    "neo_reference_id": "3873198",
    "name": "(2019 TG)",
    "designation": "2019 TG",
    "nasa_jpl_url": "http://ssd.jpl.nasa.gov/sbdb.cgi?sstr=3873198",
    "absolute_magnitude_h": 24.7,
    "estimated_diameter": {
        "kilometers": {
            "estimated_diameter_min": 0.0305179233,
            "estimated_diameter_max": 0.0682401509
        },
        "meters": {
            "estimated_diameter_min": 30.5179232594,
            "estimated_diameter_max": 68.2401509401
        },
        "miles": {
            "estimated_diameter_min": 0.0189629525,
            "estimated_diameter_max": 0.0424024508
        },
        "feet": {
            "estimated_diameter_min": 100.1244233463,
            "estimated_diameter_max": 223.8850168104
        }
    },
    "is_potentially_hazardous_asteroid": false,
    "close_approach_data": [
        {
            "close_approach_date": "2019-09-27",
            "close_approach_date_full": "2019-Sep-27 22:08",
            "epoch_date_close_approach": 1569622080000,
            "relative_velocity": {
                "kilometers_per_second": "12.7663246069",
                "kilometers_per_hour": "45958.7685846971",
                "miles_per_hour": "28556.9915130858"
            },
            "miss_distance": {
                "astronomical": "0.1098073522",
                "lunar": "42.7150600058",
                "kilometers": "16426945.999459814",
                "miles": "10207230.9284768732"
            },
            "orbiting_body": "Earth"
        }
    ],
    "orbital_data": {
        "orbit_id": "2",
        "orbit_determination_date": "2019-10-02 16:32:47",
        "first_observation_date": "2019-09-30",
        "last_observation_date": "2019-10-02",
        "data_arc_in_days": 2,
        "observations_used": 19,
        "orbit_uncertainty": "9",
        "minimum_orbit_intersection": ".105881",
        "jupiter_tisserand_invariant": "4.490",
        "epoch_osculation": "2458757.5",
        "eccentricity": ".2646334709246433",
        "semi_major_axis": "1.468661489354805",
        "inclination": "22.47582167814662",
        "ascending_node_longitude": "187.7053411304562",
        "orbital_period": "650.1012297442988",
        "perihelion_distance": "1.080004501813487",
        "perihelion_argument": "149.3624611654992",
        "aphelion_distance": "1.857318476896123",
        "perihelion_time": "2458728.427013471904",
        "mean_anomaly": "16.09945447146933",
        "mean_motion": ".5537599123471848",
        "equinox": "J2000",
        "orbit_class": {
            "orbit_class_type": "AMO",
            "orbit_class_description": "Near-Earth asteroid orbits similar to that of 1221 Amor",
            "orbit_class_range": "1.017 AU < q (perihelion) < 1.3 AU"
        }
    },
    "is_sentry_object": false
}